0 SL-8 DEB
1 20434U 90004C   13281.83526888  .00000621  00000-0  20443-3 0  8184
2 20434 074.0454 324.6185 0018165 304.2558 171.2406 14.40218828241675
0 SL-8 DEB
1 20434U 90004C   13284.11137061  .00000764  00000-0  24931-3 0  8194
2 20434 074.0450 320.4136 0018234 299.7851 092.0651 14.40223989242006
0 SL-8 DEB
1 20434U 90004C   13286.48978883  .00000713  00000-0  23343-3 0  8203
2 20434 074.0446 316.0196 0018294 295.1567 183.3598 14.40227252242346
0 SL-8 DEB
1 20434U 90004C   13288.51255907  .00001120  00000-0  36156-3 0  8214
2 20434 074.0443 312.2822 0018324 291.2121 230.7721 14.40232285242633
0 SL-8 DEB
1 20434U 90004C   13290.52734976  .00000931  00000-0  30188-3 0  8225
2 20434 074.0443 308.5595 0018338 287.2801 236.8524 14.40236642242924
0 SL-8 DEB
1 20434U 90004C   13293.14833328  .00001094  00000-0  35325-3 0  8237
2 20434 074.0446 303.7167 0018324 282.2205 145.8508 14.40240945243302
0 SL-8 DEB
1 20434U 90004C   13295.45682808  .00001223  00000-0  39388-3 0  8246
2 20434 074.0446 299.4515 0018303 277.6941 234.7996 14.40246845243632
